ONEWEB-0444             
1 51638U 22012S   24096.50233168  .00000490  00000+0  13685-2 0  9996
2 51638  87.8992 195.7842 0001694 103.7225 256.4091 13.10380291104217
ONEWEB-0445             
1 51639U 22012T   24096.52378780 -.00000519  00000+0 -15255-2 0  9998
2 51639  87.8986 195.7554 0002273 107.3971 252.7405 13.10291267104226
ONEWEB-0446             
1 51640U 22012U   24096.80611205  .00000618  00000+0  17341-2 0  9999
2 51640  87.8997 195.7173 0002203 110.7951 249.3413 13.10387264105546
ONEWEB-0448             
1 51641U 22012V   24096.81104937  .00000471  00000+0  13118-2 0  9995
2 51641  87.8995 195.7173 0001754 102.0309 258.1015 13.10370277105504
ONEWEB-0449             
1 51642U 22012W   24096.81603013  .00000231  00000+0  62660-3 0  9996
2 51642  87.8989 195.7156 0002099  98.3907 261.7459 13.10343644105525
ONEWEB-0451             
1 51643U 22012X   24096.56299120  .00000157  00000+0  37044-3 0  9994
2 51643  87.9229 165.5595 0001946  97.0663 263.0690 13.17651720107967
ONEWEB-0452             
1 51644U 22012Y   24096.56143037  .00000028  00000+0  39416-4 0  9993
2 51644  87.9236 165.5954 0002138  90.8136 269.3241 13.17648849107975
ONEWEB-0455             
1 51645U 22012Z   24096.60014855  .00000304  00000+0  12746-3 0  9997
2 51645  87.5311 138.4243 0015604 216.5837 143.4289 14.22774440111987
